CCSDS_OMM_VERS = 2.0
CREATION_DATE  = 
ORIGINATOR     = 

OBJECT_NAME    = ERS-1
OBJECT_ID      = 1991-050A
CENTER_NAME    = EARTH
REF_FRAME      = TEME
TIME_SYSTEM    = UTC
MEAN_ELEMENT_THEORY = SGP/SGP4

EPOCH          = 2026-03-12T14:48:10.948032
MEAN_MOTION    = 14.39452058
ECCENTRICITY   = .0031784
INCLINATION    = 98.7879
RA_OF_ASC_NODE = 89.9249
ARG_OF_PERICENTER = 191.6849
MEAN_ANOMALY   = 168.3604

EPHEMERIS_TYPE = 0
CLASSIFICATION_TYPE = U
NORAD_CAT_ID   = 21574
ELEMENT_SET_NO = 999
REV_AT_EPOCH   = 81615
BSTAR          = .14253E-3
MEAN_MOTION_DOT = .4E-5
MEAN_MOTION_DDOT = 0

CCSDS_OMM_VERS = 2.0
CREATION_DATE  = 
ORIGINATOR     = 

OBJECT_NAME    = ARIANE 40 R/B
OBJECT_ID      = 1991-050F
CENTER_NAME    = EARTH
REF_FRAME      = TEME
TIME_SYSTEM    = UTC
MEAN_ELEMENT_THEORY = SGP/SGP4

EPOCH          = 2026-03-12T17:31:22.996128
MEAN_MOTION    = 14.42896138
ECCENTRICITY   = .0004237
INCLINATION    = 98.2006
RA_OF_ASC_NODE = 123.8523
ARG_OF_PERICENTER = 74.5063
MEAN_ANOMALY   = 285.6595

EPHEMERIS_TYPE = 0
CLASSIFICATION_TYPE = U
NORAD_CAT_ID   = 21610
ELEMENT_SET_NO = 999
REV_AT_EPOCH   = 81943
BSTAR          = .1176E-3
MEAN_MOTION_DOT = .351E-5
MEAN_MOTION_DDOT = 0

CCSDS_OMM_VERS = 2.0
CREATION_DATE  = 
ORIGINATOR     = 

OBJECT_NAME    = INTERCOSMOS 25
OBJECT_ID      = 1991-086A
CENTER_NAME    = EARTH
REF_FRAME      = TEME
TIME_SYSTEM    = UTC
MEAN_ELEMENT_THEORY = SGP/SGP4

EPOCH          = 2026-03-12T17:05:32.834976
MEAN_MOTION    = 12.12010050
ECCENTRICITY   = .1486913
INCLINATION    = 82.6045
RA_OF_ASC_NODE = 308.1814
ARG_OF_PERICENTER = 110.4228
MEAN_ANOMALY   = 266.2502

EPHEMERIS_TYPE = 0
CLASSIFICATION_TYPE = U
NORAD_CAT_ID   = 21819
ELEMENT_SET_NO = 999
REV_AT_EPOCH   = 49705
BSTAR          = .39708E-3
MEAN_MOTION_DOT = .2062E-4
MEAN_MOTION_DDOT = 0

CCSDS_OMM_VERS = 2.0
CREATION_DATE  = 
ORIGINATOR     = 

OBJECT_NAME    = SL-8 R/B
OBJECT_ID      = 1992-008B
CENTER_NAME    = EARTH
REF_FRAME      = TEME
TIME_SYSTEM    = UTC
MEAN_ELEMENT_THEORY = SGP/SGP4

EPOCH          = 2026-03-13T00:05:46.128768
MEAN_MOTION    = 13.75969806
ECCENTRICITY   = .0035673
INCLINATION    = 82.9221
RA_OF_ASC_NODE = 265.3122
ARG_OF_PERICENTER = 124.3739
MEAN_ANOMALY   = 345.9267

EPHEMERIS_TYPE = 0
CLASSIFICATION_TYPE = U
NORAD_CAT_ID   = 21876
ELEMENT_SET_NO = 999
REV_AT_EPOCH   = 70987
BSTAR          = -.19625E-5
MEAN_MOTION_DOT = .14E-6
MEAN_MOTION_DDOT = 0

CCSDS_OMM_VERS = 2.0
CREATION_DATE  = 
ORIGINATOR     = 

OBJECT_NAME    = SL-8 R/B
OBJECT_ID      = 1992-020B
CENTER_NAME    = EARTH
REF_FRAME      = TEME
TIME_SYSTEM    = UTC
MEAN_ELEMENT_THEORY = SGP/SGP4

EPOCH          = 2026-03-12T18:14:01.008096
MEAN_MOTION    = 13.75549798
ECCENTRICITY   = .0027629
INCLINATION    = 82.9332
RA_OF_ASC_NODE = 151.4824
ARG_OF_PERICENTER = 289.8460
MEAN_ANOMALY   = 192.9632

EPHEMERIS_TYPE = 0
CLASSIFICATION_TYPE = U
NORAD_CAT_ID   = 21938
ELEMENT_SET_NO = 999
REV_AT_EPOCH   = 70155
BSTAR          = .39948E-4
MEAN_MOTION_DOT = .53E-6
MEAN_MOTION_DDOT = 0

CCSDS_OMM_VERS = 2.0
CREATION_DATE  = 
ORIGINATOR     = 

OBJECT_NAME    = USA 81
OBJECT_ID      = 1992-023A
CENTER_NAME    = EARTH
REF_FRAME      = TEME
TIME_SYSTEM    = UTC
MEAN_ELEMENT_THEORY = SGP/SGP4

EPOCH          = 2026-03-12T15:54:16.117920
MEAN_MOTION    = 14.32369041
ECCENTRICITY   = .0002381
INCLINATION    = 85.0079
RA_OF_ASC_NODE = 129.7261
ARG_OF_PERICENTER = 74.9437
MEAN_ANOMALY   = 285.2019

EPHEMERIS_TYPE = 0
CLASSIFICATION_TYPE = U
NORAD_CAT_ID   = 21949
ELEMENT_SET_NO = 999
REV_AT_EPOCH   = 9521
BSTAR          = .61111E-4
MEAN_MOTION_DOT = .185E-5
MEAN_MOTION_DDOT = 0

CCSDS_OMM_VERS = 2.0
CREATION_DATE  = 
ORIGINATOR     = 

OBJECT_NAME    = COSMOS 2219
OBJECT_ID      = 1992-076A
CENTER_NAME    = EARTH
REF_FRAME      = TEME
TIME_SYSTEM    = UTC
MEAN_ELEMENT_THEORY = SGP/SGP4

EPOCH          = 2026-03-12T23:41:30.878880
MEAN_MOTION    = 14.14093432
ECCENTRICITY   = .0018793
INCLINATION    = 71.0640
RA_OF_ASC_NODE = 11.1748
ARG_OF_PERICENTER = 202.4420
MEAN_ANOMALY   = 157.5883

EPHEMERIS_TYPE = 0
CLASSIFICATION_TYPE = U
NORAD_CAT_ID   = 22219
ELEMENT_SET_NO = 999
REV_AT_EPOCH   = 71884
BSTAR          = .41102E-4
MEAN_MOTION_DOT = .31E-6
MEAN_MOTION_DDOT = 0

CCSDS_OMM_VERS = 2.0
CREATION_DATE  = 
ORIGINATOR     = 

OBJECT_NAME    = SL-16 R/B
OBJECT_ID      = 1992-076B
CENTER_NAME    = EARTH
REF_FRAME      = TEME
TIME_SYSTEM    = UTC
MEAN_ELEMENT_THEORY = SGP/SGP4

EPOCH          = 2026-03-12T18:00:13.519872
MEAN_MOTION    = 14.16859247
ECCENTRICITY   = .001048
INCLINATION    = 71.0008
RA_OF_ASC_NODE = 181.9273
ARG_OF_PERICENTER = 90.7055
MEAN_ANOMALY   = 61.1680

EPHEMERIS_TYPE = 0
CLASSIFICATION_TYPE = U
NORAD_CAT_ID   = 22220
ELEMENT_SET_NO = 999
REV_AT_EPOCH   = 72226
BSTAR          = -.30863E-4
MEAN_MOTION_DOT = -.11E-5
MEAN_MOTION_DDOT = 0

CCSDS_OMM_VERS = 2.0
CREATION_DATE  = 
ORIGINATOR     = 

OBJECT_NAME    = COSMOS 2221
OBJECT_ID      = 1992-080A
CENTER_NAME    = EARTH
REF_FRAME      = TEME
TIME_SYSTEM    = UTC
MEAN_ELEMENT_THEORY = SGP/SGP4

EPOCH          = 2026-03-12T23:32:59.401248
MEAN_MOTION    = 14.96215489
ECCENTRICITY   = .0014317
INCLINATION    = 82.5012
RA_OF_ASC_NODE = 275.9275
ARG_OF_PERICENTER = 175.9855
MEAN_ANOMALY   = 184.1484

EPHEMERIS_TYPE = 0
CLASSIFICATION_TYPE = U
NORAD_CAT_ID   = 22236
ELEMENT_SET_NO = 999
REV_AT_EPOCH   = 78128
BSTAR          = .21161E-3
MEAN_MOTION_DOT = .2416E-4
MEAN_MOTION_DDOT = 0

CCSDS_OMM_VERS = 2.0
CREATION_DATE  = 
ORIGINATOR     = 

OBJECT_NAME    = SL-16 R/B
OBJECT_ID      = 1992-093B
CENTER_NAME    = EARTH
REF_FRAME      = TEME
TIME_SYSTEM    = UTC
MEAN_ELEMENT_THEORY = SGP/SGP4

EPOCH          = 2026-03-12T23:46:04.322784
MEAN_MOTION    = 14.15447134
ECCENTRICITY   = .0006375
INCLINATION    = 71.0242
RA_OF_ASC_NODE = 357.3374
ARG_OF_PERICENTER = 290.1836
MEAN_ANOMALY   = 69.8601

EPHEMERIS_TYPE = 0
CLASSIFICATION_TYPE = U
NORAD_CAT_ID   = 22285
ELEMENT_SET_NO = 999
REV_AT_EPOCH   = 71362
BSTAR          = -.39059E-4
MEAN_MOTION_DOT = -.124E-5
MEAN_MOTION_DDOT = 0

CCSDS_OMM_VERS = 2.0
CREATION_DATE  = 
ORIGINATOR     = 

OBJECT_NAME    = COSMOS 2228
OBJECT_ID      = 1992-094A
CENTER_NAME    = EARTH
REF_FRAME      = TEME
TIME_SYSTEM    = UTC
MEAN_ELEMENT_THEORY = SGP/SGP4

EPOCH          = 2026-03-12T22:17:09.870144
MEAN_MOTION    = 14.97209430
ECCENTRICITY   = .0016682
INCLINATION    = 82.5159
RA_OF_ASC_NODE = 234.2087
ARG_OF_PERICENTER = 292.9073
MEAN_ANOMALY   = 67.0388

EPHEMERIS_TYPE = 0
CLASSIFICATION_TYPE = U
NORAD_CAT_ID   = 22286
ELEMENT_SET_NO = 999
REV_AT_EPOCH   = 77654
BSTAR          = .27506E-3
MEAN_MOTION_DOT = .3215E-4
MEAN_MOTION_DDOT = 0

CCSDS_OMM_VERS = 2.0
CREATION_DATE  = 
ORIGINATOR     = 

OBJECT_NAME    = SL-16 R/B
OBJECT_ID      = 1993-016B
CENTER_NAME    = EARTH
REF_FRAME      = TEME
TIME_SYSTEM    = UTC
MEAN_ELEMENT_THEORY = SGP/SGP4

EPOCH          = 2026-03-12T19:39:25.118208
MEAN_MOTION    = 14.15309352
ECCENTRICITY   = .0012038
INCLINATION    = 71.0079
RA_OF_ASC_NODE = 208.6082
ARG_OF_PERICENTER = 309.9663
MEAN_ANOMALY   = 50.0401

EPHEMERIS_TYPE = 0
CLASSIFICATION_TYPE = U
NORAD_CAT_ID   = 22566
ELEMENT_SET_NO = 999
REV_AT_EPOCH   = 70261
BSTAR          = .10064E-4
MEAN_MOTION_DOT = -.28E-6
MEAN_MOTION_DDOT = 0

